{"type": "FeatureCollection", "features": [ {"type": "Feature", "properties": {"norad_id": 44476, "name": "INTELSAT 39 (IS-39)", "group": "intelsat", "lat": -0.020387246368195878, "lon": -69.41957372813789, "alt_km": 35791.65241807158, "timestamp": "2025-12-12T09:49:08.395940+00:00", "meta": {"OBJECT_NAME": "INTELSAT 39 (IS-39)", "OBJECT_ID": "2019-049B", "EPOCH": "2025-12-11T23:25:15.903264", "MEAN_MOTION": 1.00267474, "ECCENTRICITY": 0.0001157, "INCLINATION": 0.0183, "RA_OF_ASC_NODE": 320.2601, "ARG_OF_PERICENTER": 176.2508, "MEAN_ANOMALY": 357.6803, "EPHEMERIS_TYPE": 0, "CLASSIFICATION_TYPE": "U", "NORAD_CAT_ID": 44476, "ELEMENT_SET_NO": 999, "REV_AT_EPOCH": 2325, "BSTAR": 0, "MEAN_MOTION_DOT": 4.3e-07, "MEAN_MOTION_DDOT": 0}, "tle": {"line1": "1 44476U 19049B   25345.97587851  .00000043  00000+0  00000+0 0  9992", "line2": "2 44476   0.0183 320.2601 0001157 176.2508 357.6803  1.00267474 23251"}}, "geometry": {"type": "Point", "coordinates": [-69.41957372813789, -0.020387246368195878]}}, {"type": "Feature", "properties": {"norad_id": 46114, "name": "GALAXY 30 (G-30)", "group": "intelsat", "lat": 0.027689628168374853, "lon": 103.62803074833705, "alt_km": 35794.631004354094, "timestamp": "2025-12-12T09:49:08.395951+00:00", "meta": {"OBJECT_NAME": "GALAXY 30 (G-30)", "OBJECT_ID": "2020-056C", "EPOCH": "2025-12-12T04:02:38.642784", "MEAN_MOTION": 1.00272734, "ECCENTRICITY": 0.0002253, "INCLINATION": 0.0165, "RA_OF_ASC_NODE": 336.288, "ARG_OF_PERICENTER": 285.2065, "MEAN_ANOMALY": 115.287, "EPHEMERIS_TYPE": 0, "CLASSIFICATION_TYPE": "U", "NORAD_CAT_ID": 46114, "ELEMENT_SET_NO": 999, "REV_AT_EPOCH": 1941, "BSTAR": 0, "MEAN_MOTION_DOT": 4.6e-07, "MEAN_MOTION_DDOT": 0}, "tle": {"line1": "1 46114U 20056C   25346.16850281  .00000046  00000+0  00000+0 0  9998", "line2": "2 46114   0.0165 336.2880 0002253 285.2065 115.2870  1.00272734 19415"}}, "geometry": {"type": "Point", "coordinates": [103.62803074833705, 0.027689628168374853]}}, {"type": "Feature", "properties": {"norad_id": 54026, "name": "GALAXY 33 (G-33)", "group": "intelsat", "lat": 0.024939360865193563, "lon": 95.62753312405485, "alt_km": 35794.22952729185, "timestamp": "2025-12-12T09:49:08.395963+00:00", "meta": {"OBJECT_NAME": "GALAXY 33 (G-33)", "OBJECT_ID": "2022-128A", "EPOCH": "2025-12-11T16:18:14.016960", "MEAN_MOTION": 1.00271184, "ECCENTRICITY": 0.0002031, "INCLINATION": 0.0122, "RA_OF_ASC_NODE": 329.7994, "ARG_OF_PERICENTER": 285.1983, "MEAN_ANOMALY": 297.1989, "EPHEMERIS_TYPE": 0, "CLASSIFICATION_TYPE": "U", "NORAD_CAT_ID": 54026, "ELEMENT_SET_NO": 999, "REV_AT_EPOCH": 1186, "BSTAR": 0, "MEAN_MOTION_DOT": 8.7e-07, "MEAN_MOTION_DDOT": 0}, "tle": {"line1": "1 54026U 22128A   25345.67932890  .00000087  00000+0  00000+0 0  9998", "line2": "2 54026   0.0122 329.7994 0002031 285.1983 297.1989  1.00271184 11864"}}, "geometry": {"type": "Point", "coordinates": [95.62753312405485, 0.024939360865193563]}}, {"type": "Feature", "properties": {"norad_id": 54027, "name": "GALAXY 34 (G-34)", "group": "intelsat", "lat": 0.03471603165757573, "lon": 99.69156516375924, "alt_km": 35791.84085007421, "timestamp": "2025-12-12T09:49:08.395975+00:00", "meta": {"OBJECT_NAME": "GALAXY 34 (G-34)", "OBJECT_ID": "2022-128B", "EPOCH": "2025-12-11T16:19:21.409824", "MEAN_MOTION": 1.00269841, "ECCENTRICITY": 0.0001404, "INCLINATION": 0.0224, "RA_OF_ASC_NODE": 340.3184, "ARG_OF_PERICENTER": 271.9035, "MEAN_ANOMALY": 304.3231, "EPHEMERIS_TYPE": 0, "CLASSIFICATION_TYPE": "U", "NORAD_CAT_ID": 54027, "ELEMENT_SET_NO": 999, "REV_AT_EPOCH": 1203, "BSTAR": 0, "MEAN_MOTION_DOT": 0, "MEAN_MOTION_DDOT": 0}, "tle": {"line1": "1 54027U 22128B   25345.68010891  .00000000  00000+0  00000+0 0  9993", "line2": "2 54027   0.0224 340.3184 0001404 271.9035 304.3231  1.00269841 12030"}}, "geometry": {"type": "Point", "coordinates": [99.69156516375924, 0.03471603165757573]}}, {"type": "Feature", "properties": {"norad_id": 54243, "name": "GALAXY 31 (G-31)", "group": "intelsat", "lat": 0.005671355806606151, "lon": 107.6331205522098, "alt_km": 35793.08939738164, "timestamp": "2025-12-12T09:49:08.395987+00:00", "meta": {"OBJECT_NAME": "GALAXY 31 (G-31)", "OBJECT_ID": "2022-153A", "EPOCH": "2025-12-12T02:56:38.651712", "MEAN_MOTION": 1.0027141, "ECCENTRICITY": 0.00017, "INCLINATION": 0.0143, "RA_OF_ASC_NODE": 275.4545, "ARG_OF_PERICENTER": 356.3387, "MEAN_ANOMALY": 92.445, "EPHEMERIS_TYPE": 0, "CLASSIFICATION_TYPE": "U", "NORAD_CAT_ID": 54243, "ELEMENT_SET_NO": 999, "REV_AT_EPOCH": 525, "BSTAR": 0, "MEAN_MOTION_DOT": 2.3e-07, "MEAN_MOTION_DDOT": 0}, "tle": {"line1": "1 54243U 22153A   25346.12266958  .00000023  00000+0  00000+0 0  9993", "line2": "2 54243   0.0143 275.4545 0001700 356.3387  92.4450  1.00271410  5255"}}, "geometry": {"type": "Point", "coordinates": [107.6331205522098, 0.005671355806606151]}}, {"type": "Feature", "properties": {"norad_id": 54244, "name": "GALAXY 32 (G-32)", "group": "intelsat", "lat": 0.01469140477376286, "lon": 137.61767568410045, "alt_km": 35797.862577411586, "timestamp": "2025-12-12T09:49:08.395999+00:00", "meta": {"OBJECT_NAME": "GALAXY 32 (G-32)", "OBJECT_ID": "2022-153B", "EPOCH": "2025-12-11T19:55:38.198208", "MEAN_MOTION": 1.00270455, "ECCENTRICITY": 0.0002716, "INCLINATION": 0.0095, "RA_OF_ASC_NODE": 3.9095, "ARG_OF_PERICENTER": 308.1779, "MEAN_ANOMALY": 336.5954, "EPHEMERIS_TYPE": 0, "CLASSIFICATION_TYPE": "U", "NORAD_CAT_ID": 54244, "ELEMENT_SET_NO": 999, "REV_AT_EPOCH": 1126, "BSTAR": 0, "MEAN_MOTION_DOT": -1.66e-06, "MEAN_MOTION_DDOT": 0}, "tle": {"line1": "1 54244U 22153B   25345.83030322 -.00000166  00000+0  00000+0 0  9994", "line2": "2 54244   0.0095   3.9095 0002716 308.1779 336.5954  1.00270455 11261"}}, "geometry": {"type": "Point", "coordinates": [137.61767568410045, 0.01469140477376286]}}, {"type": "Feature", "properties": {"norad_id": 54741, "name": "GALAXY 35 (G-35)", "group": "intelsat", "lat": -0.005051624576283475, "lon": 135.52172143006788, "alt_km": 35793.19301052623, "timestamp": "2025-12-12T09:49:08.396011+00:00", "meta": {"OBJECT_NAME": "GALAXY 35 (G-35)", "OBJECT_ID": "2022-170A", "EPOCH": "2025-12-12T02:45:56.123424", "MEAN_MOTION": 1.00271243, "ECCENTRICITY": 0.0002498, "INCLINATION": 0.0131, "RA_OF_ASC_NODE": 266.2821, "ARG_OF_PERICENTER": 0.3652, "MEAN_ANOMALY": 122.8115, "EPHEMERIS_TYPE": 0, "CLASSIFICATION_TYPE": "U", "NORAD_CAT_ID": 54741, "ELEMENT_SET_NO": 999, "REV_AT_EPOCH": 1101, "BSTAR": 0, "MEAN_MOTION_DOT": -1.53e-06, "MEAN_MOTION_DDOT": 0}, "tle": {"line1": "1 54741U 22170A   25346.11523291 -.00000153  00000+0  00000+0 0  9995", "line2": "2 54741   0.0131 266.2821 0002498   0.3652 122.8115  1.00271243 11017"}}, "geometry": {"type": "Point", "coordinates": [135.52172143006788, -0.005051624576283475]}}, {"type": "Feature", "properties": {"norad_id": 54742, "name": "GALAXY 36 (G-36)", "group": "intelsat", "lat": 0.011333756874918827, "lon": 139.63567162466126, "alt_km": 35787.39137948464, "timestamp": "2025-12-12T09:49:08.396023+00:00", "meta": {"OBJECT_NAME": "GALAXY 36 (G-36)", "OBJECT_ID": "2022-170B", "EPOCH": "2025-12-12T02:47:03.515424", "MEAN_MOTION": 1.00272264, "ECCENTRICITY": 3.87e-05, "INCLINATION": 0.0218, "RA_OF_ASC_NODE": 94.7201, "ARG_OF_PERICENTER": 195.8779, "MEAN_ANOMALY": 103.2357, "EPHEMERIS_TYPE": 0, "CLASSIFICATION_TYPE": "U", "NORAD_CAT_ID": 54742, "ELEMENT_SET_NO": 999, "REV_AT_EPOCH": 1089, "BSTAR": 0, "MEAN_MOTION_DOT": -1.76e-06, "MEAN_MOTION_DDOT": 0}, "tle": {"line1": "1 54742U 22170B   25346.11601291 -.00000176  00000+0  00000+0 0  9998", "line2": "2 54742   0.0218  94.7201 0000387 195.8779 103.2357  1.00272264 10895"}}, "geometry": {"type": "Point", "coordinates": [139.63567162466126, 0.011333756874918827]}}, {"type": "Feature", "properties": {"norad_id": 57493, "name": "GALAXY 37 (G-37)", "group": "intelsat", "lat": 0.023849502050707534, "lon": 101.63029876163321, "alt_km": 35794.942475482494, "timestamp": "2025-12-12T09:49:08.396035+00:00", "meta": {"OBJECT_NAME": "GALAXY 37 (G-37)", "OBJECT_ID": "2023-112A", "EPOCH": "2025-12-12T04:02:38.642784", "MEAN_MOTION": 1.00271537, "ECCENTRICITY": 0.0002167, "INCLINATION": 0.0125, "RA_OF_ASC_NODE": 28.474, "ARG_OF_PERICENTER": 237.0501, "MEAN_ANOMALY": 109.2578, "EPHEMERIS_TYPE": 0, "CLASSIFICATION_TYPE": "U", "NORAD_CAT_ID": 57493, "ELEMENT_SET_NO": 999, "REV_AT_EPOCH": 866, "BSTAR": 0, "MEAN_MOTION_DOT": 5.8e-07, "MEAN_MOTION_DDOT": 0}, "tle": {"line1": "1 57493U 23112A   25346.16850281  .00000058  00000+0  00000+0 0  9999", "line2": "2 57493   0.0125  28.4740 0002167 237.0501 109.2578  1.00271537  8665"}}, "geometry": {"type": "Point", "coordinates": [101.63029876163321, 0.023849502050707534]}}]}